[
    {
        "CCSDS_OMM_VERS": "3.0",
        "COMMENT": "GENERATED VIA SPACE-TRACK.ORG API",
        "CREATION_DATE": "2025-04-14T03:05:54",
        "ORIGINATOR": "18 SPCS",
        "OBJECT_NAME": "BEIDOU 3M16",
        "OBJECT_ID": "2018-078B",
        "CENTER_NAME": "EARTH",
        "REF_FRAME": "TEME",
        "TIME_SYSTEM": "UTC",
        "MEAN_ELEMENT_THEORY": "SGP4",
        "EPOCH": "2025-04-13T01:16:54.446016",
        "MEAN_MOTION": "1.86232409",
        "ECCENTRICITY": "0.00051410",
        "INCLINATION": "54.4696",
        "RA_OF_ASC_NODE": "315.0234",
        "ARG_OF_PERICENTER": "37.9788",
        "MEAN_ANOMALY": "322.0882",
        "EPHEMERIS_TYPE": "0",
        "CLASSIFICATION_TYPE": "U",
        "NORAD_CAT_ID": "43648",
        "ELEMENT_SET_NO": "999",
        "REV_AT_EPOCH": "4416",
        "BSTAR": "0.00000000000000",
        "MEAN_MOTION_DOT": "-0.00000068",
        "MEAN_MOTION_DDOT": "0.0000000000000",
        "SEMIMAJOR_AXIS": "27906.048",
        "PERIOD": "773.227",
        "APOAPSIS": "21542.259",
        "PERIAPSIS": "21513.566",
        "OBJECT_TYPE": "PAYLOAD",
        "RCS_SIZE": "LARGE",
        "COUNTRY_CODE": "PRC",
        "LAUNCH_DATE": "2018-10-15",
        "SITE": "XSC",
        "DECAY_DATE": null,
        "FILE": "4701263",
        "GP_ID": "285538504",
        "TLE_LINE0": "0 BEIDOU 3M16",
        "TLE_LINE1": "1 43648U 18078B   25103.05340794 -.00000068  00000-0  00000-0 0  9997",
        "TLE_LINE2": "2 43648  54.4696 315.0234 0005141  37.9788 322.0882  1.86232409 44167"
    }
]